SL-14 R/B               
1 18749U 88001B   25310.46947706  .00000727  00000+0  81647-4 0  9995
2 18749  82.5106 311.2695 0016551 287.5231  72.4176 14.85363663 23733
COSMOS 1933             
1 18958U 88020A   25310.73554244  .00006228  00000+0  31667-3 0  9997
2 18958  82.5158  12.4397 0002816 263.8713  96.2199 15.16681769 31588
SL-3 R/B                
1 19046U 88032B   25310.74961391  .00008530  00000+0  41722-3 0  9996
2 19046  97.5046 289.7400 0025326 305.2398  54.6466 15.18175744 33449
SL-16 R/B               
1 19120U 88039B   25310.45803347  .00000152  00000+0  94484-4 0  9996
2 19120  71.0148 329.1153 0021487 175.4573 184.6752 14.19586874940890
SL-8 R/B                
1 19257U 88053B   25310.54212604  .00000411  00000+0  14183-3 0  9998
2 19257  74.0479 339.4360 0020324 194.4645 317.8243 14.38826032958882
COSMOS 1975             
1 19573U 88093A   25310.78301561  .00013460  00000+0  52751-3 0  9991
2 19573  82.5221 240.7971 0009445 240.1994 119.8306 15.25615776   652
SL-14 R/B               
1 19574U 88093B   25310.35520955  .00000642  00000+0  71244-4 0  9992
2 19574  82.5304 157.8118 0022320  86.4341  86.0406 14.85492857982721
SL-16 R/B               
1 19650U 88102B   25310.71666073 -.00000113  00000+0 -32849-4 0  9993
2 19650  71.0011  50.2365 0015098 207.0706 152.9632 14.16130966909484
INTERCOSMOS 24          
1 20261U 89080A   25310.59306980  .00000937  00000+0  27661-3 0  9990
2 20261  82.6084 184.4567 1187853 218.3821 132.6715 12.59358210651300
